NORAD_CAT_ID,OBJECT_NAME,OBJECT_TYPE,EPOCH,MEAN_MOTION,ECCENTRICITY,INCLINATION,RA_OF_ASC_NODE,ARG_OF_PERICENTER,MEAN_ANOMALY,BSTAR,MEAN_MOTION_DOT,MEAN_MOTION_DDOT,TLE_LINE0,TLE_LINE1,TLE_LINE2,SEMIMAJOR_AXIS,PERIOD,APOGEE,PERIGEE,DECAYED
55419.0,STARLINK-5629,PAYLOAD,2023-08-17 10:45:19,14.98344516,0.0003408,69.9993,282.4682,271.6816,88.3952,-0.0002392,-2.947e-05,0.0,0 STARLINK-5629,1 55419U 23014AE  23229.44814587 -.00002947  00000-0 -23920-3 0  9996,2 55419  69.9993 282.4682 0003408 271.6816  88.3952 14.98344516 30530,6950.148,96.106,574.382,569.644,0.0
55419.0,STARLINK-5629,PAYLOAD,2023-08-18 02:46:40,14.98328566,0.0003727,69.9992,280.7848,271.2877,88.7855,-1.5909e-05,-2.83e-06,0.0,0 STARLINK-5629,1 55419U 23014AE  23230.11574930 -.00000283  00000-0 -15909-4 0  9997,2 55419  69.9992 280.7848 0003727 271.2877  88.7855 14.98328566 30635,6950.197,96.107,574.653,569.472,0.0
55419.0,STARLINK-5629,PAYLOAD,2023-08-19 09:13:13,14.98332219,0.0003453,69.9999,277.5875,265.732,94.3445,5.6132e-05,5.77e-06,0.0,0 STARLINK-5629,1 55419U 23014AE  23231.38418335  .00000577  00000-0  56132-4 0  9990,2 55419  69.9999 277.5875 0003453 265.7320  94.3445 14.98332219 30822,6950.186,96.107,574.451,569.651,0.0
55419.0,STARLINK-5629,PAYLOAD,2023-08-19 15:37:45,14.98338916,0.0003622,69.9993,276.9129,274.4376,85.637,0.00010931,1.212e-05,0.0,0 STARLINK-5629,1 55419U 23014AE  23231.65121710  .00001212  00000-0  10931-3 0  9991,2 55419  69.9993 276.9129 0003622 274.4376  85.6370 14.98338916 30861,6950.165,96.106,574.548,569.513,0.0
55419.0,STARLINK-5629,PAYLOAD,2023-08-20 04:26:50,14.98323806,0.0003921,69.9987,275.5664,268.9948,91.0762,-1.2573e-05,-2.43e-06,0.0,0 STARLINK-5629,1 55419U 23014AE  23232.18530816 -.00000243  00000-0 -12573-4 0  9991,2 55419  69.9987 275.5664 0003921 268.9948  91.0762 14.98323806 30945,6950.212,96.107,574.802,569.352,0.0
55419.0,STARLINK-5629,PAYLOAD,2023-08-21 10:53:23,14.98330388,0.0003447,70.0001,272.3707,258.9892,101.0879,-9.7383e-05,-1.255e-05,0.0,0 STARLINK-5629,1 55419U 23014AE  23233.45374717 -.00001255  00000-0 -97383-4 0  9994,2 55419  70.0001 272.3707 0003447 258.9892 101.0879 14.98330388 31134,6950.192,96.107,574.452,569.661,0.0
55419.0,STARLINK-5629,PAYLOAD,2023-08-22 12:31:33,14.98322244,0.0003063,69.9999,269.6764,250.4355,109.6474,5.7078e-06,-2.5e-07,0.0,0 STARLINK-5629,1 55419U 23014AE  23234.52191050 -.00000025  00000-0  57078-5 0  9991,2 55419  69.9999 269.6764 0003063 250.4355 109.6474 14.98322244 31298,6950.217,96.107,574.211,569.953,0.0
55419.0,STARLINK-5629,PAYLOAD,2023-08-23 01:20:37,14.98332698,0.0003521,69.9986,268.329,267.9232,92.1524,-1.2405e-05,-2.41e-06,0.0,0 STARLINK-5629,1 55419U 23014AE  23235.05598513 -.00000241  00000-0 -12405-4 0  9990,2 55419  69.9986 268.3290 0003521 267.9232  92.1524 14.98332698 31375,6950.185,96.107,574.497,569.602,0.0
55419.0,STARLINK-5629,PAYLOAD,2023-08-24 10:59:26,14.98329811,0.0003828,69.9983,264.7939,266.8584,93.2137,2.8274e-06,-5.9e-07,0.0,0 STARLINK-5629,1 55419U 23014AE  23236.45794527 -.00000059  00000-0  28274-5 0  9996,2 55419  69.9983 264.7939 0003828 266.8584  93.2137 14.98329811 32523,6950.193,96.107,574.719,569.398,0.0
55419.0,STARLINK-5629,PAYLOAD,2023-08-25 03:00:47,14.98330462,0.0003831,69.9983,263.1105,266.9828,93.0893,-9.2856e-07,-1.04e-06,0.0,0 STARLINK-5629,1 55419U 23014AE  23237.12554458 -.00000104  00000-0 -92856-6 0  9998,2 55419  69.9983 263.1105 0003831 266.9828  93.0893 14.98330462 31684,6950.191,96.107,574.719,569.394,0.0
55419.0,STARLINK-5629,PAYLOAD,2023-08-25 11:01:27,14.98330133,0.0003852,69.9981,262.2688,266.6525,93.4194,-4.1844e-06,-1.43e-06,0.0,0 STARLINK-5629,1 55419U 23014AE  23237.45934470 -.00000143  00000-0 -41844-5 0  9993,2 55419  69.9981 262.2688 0003852 266.6525  93.4194 14.98330133 32675,6950.192,96.107,574.735,569.38,0.0
55419.0,STARLINK-5629,PAYLOAD,2023-08-25 14:13:43,14.98330576,0.0003905,69.9979,261.9317,268.7498,91.3213,1.1772e-07,-9.2e-07,0.0,0 STARLINK-5629,1 55419U 23014AE  23237.59286433 -.00000092  00000-0  11772-6 0  9997,2 55419  69.9979 261.9317 0003905 268.7498  91.3213 14.98330576 32690,6950.191,96.107,574.77,569.342,0.0
55419.0,STARLINK-5629,PAYLOAD,2023-08-26 11:03:28,14.98329658,0.0003909,69.9979,259.7434,268.5304,91.5407,-7.0623e-06,-1.77e-06,0.0,0 STARLINK-5629,1 55419U 23014AE  23238.46074493 -.00000177  00000-0 -70623-5 0  9999,2 55419  69.9979 259.7434 0003909 268.5304  91.5407 14.98329658 31889,6950.194,96.107,574.776,569.342,0.0
55419.0,STARLINK-5629,PAYLOAD,2023-08-26 14:15:44,14.98330736,0.000393,69.9978,259.4064,268.9047,91.1662,6.2837e-06,-1.8e-07,0.0,0 STARLINK-5629,1 55419U 23014AE  23238.59426384 -.00000018  00000-0  62837-5 0  9994,2 55419  69.9978 259.4064 0003930 268.9047  91.1662 14.98330736 32841,6950.191,96.107,574.787,569.324,0.0
55419.0,STARLINK-5629,PAYLOAD,2023-08-27 09:29:21,14.98330587,0.0003934,69.9977,257.3865,268.6401,91.4307,2.0452e-05,1.51e-06,0.0,0 STARLINK-5629,1 55419U 23014AE  23239.39538314  .00000151  00000-0  20452-4 0  9993,2 55419  69.9977 257.3865 0003934 268.6401  91.4307 14.98330587 32967,6950.191,96.107,574.79,569.322,0.0
55419.0,STARLINK-5629,PAYLOAD,2023-08-27 12:41:37,14.98330979,0.0003944,69.9977,257.0499,268.9278,91.1429,2.3108e-05,1.83e-06,0.0,0 STARLINK-5629,1 55419U 23014AE  23239.52890273  .00000183  00000-0  23108-4 0  9999,2 55419  69.9977 257.0499 0003944 268.9278  91.1429 14.98330979 32049,6950.19,96.107,574.796,569.314,0.0
55419.0,STARLINK-5629,PAYLOAD,2023-08-28 12:43:38,14.98330877,0.0003907,69.9979,254.5243,268.4716,91.5996,2.559e-05,2.12e-06,0.0,0 STARLINK-5629,1 55419U 23014AE  23240.53030205  .00000212  00000-0  25590-4 0  9993,2 55419  69.9979 254.5243 0003907 268.4716  91.5996 14.98330877 32197,6950.19,96.107,574.771,569.34,0.0
55419.0,STARLINK-5629,PAYLOAD,2023-08-29 14:21:47,14.98331578,0.0003887,69.9981,251.8312,268.0086,92.0628,8.3493e-06,6e-08,0.0,0 STARLINK-5629,1 55419U 23014AE  23241.59846088  .00000006  00000-0  83493-5 0  9992,2 55419  69.9981 251.8312 0003887 268.0086  92.0628 14.98331578 32355,6950.188,96.107,574.755,569.351,0.0
55419.0,STARLINK-5629,PAYLOAD,2023-08-30 17:36:04,14.98339179,0.0003913,69.9985,248.9694,270.1775,89.8935,-0.00019638,-2.436e-05,0.0,0 STARLINK-5629,1 55419U 23014AE  23242.73337987 -.00002436  00000-0 -19638-3 0  9991,2 55419  69.9985 248.9694 0003913 270.1775  89.8935 14.98339179 33461,6950.165,96.106,574.749,569.31,0.0
55419.0,STARLINK-5629,PAYLOAD,2023-08-31 06:25:08,14.98327908,0.0003808,69.9987,247.6226,266.9915,93.0808,1.0344e-05,3e-07,0.0,0 STARLINK-5629,1 55419U 23014AE  23243.26746246  .00000030  00000-0  10344-4 0  9994,2 55419  69.9987 247.6226 0003808 266.9915  93.0808 14.98327908 32600,6950.199,96.107,574.711,569.418,0.0
55419.0,STARLINK-5629,PAYLOAD,2023-09-01 06:27:09,14.98327731,0.0003811,69.9989,245.0976,265.7593,94.313,5.4915e-05,5.62e-06,0.0,0 STARLINK-5629,1 55419U 23014AE  23244.26886127  .00000562  00000-0  54915-4 0  9990,2 55419  69.9989 245.0976 0003811 265.7593  94.3130 14.98327731 32751,6950.2,96.107,574.714,569.416,0.0
55419.0,STARLINK-5629,PAYLOAD,2023-09-01 17:40:05,14.98330546,0.0003881,69.9991,243.9197,267.4833,92.5882,3.0237e-05,2.68e-06,0.0,0 STARLINK-5629,1 55419U 23014AE  23244.73618011  .00000268  00000-0  30237-4 0  9991,2 55419  69.9991 243.9197 0003881 267.4833  92.5882 14.98330546 33763,6950.191,96.107,574.754,569.359,0.0
55419.0,STARLINK-5629,PAYLOAD,2023-09-02 06:29:10,14.98331609,0.0003875,69.9982,242.5731,267.8661,92.2055,3.2035e-05,2.89e-06,0.0,0 STARLINK-5629,1 55419U 23014AE  23245.27025892  .00000289  00000-0  32035-4 0  9991,2 55419  69.9982 242.5731 0003875 267.8661  92.2055 14.98331609 32903,6950.188,96.107,574.746,569.36,0.0
55419.0,STARLINK-5629,PAYLOAD,2023-09-02 17:42:06,14.9833078,0.0003879,69.9979,241.3947,267.7479,92.3236,1.8366e-05,1.26e-06,0.0,0 STARLINK-5629,1 55419U 23014AE  23245.73757928  .00000126  00000-0  18366-4 0  9995,2 55419  69.9979 241.3947 0003879 267.7479  92.3236 14.98330780 33918,6950.19,96.107,574.751,569.359,0.0
55419.0,STARLINK-5629,PAYLOAD,2023-09-03 09:43:27,14.98332525,0.0003866,69.9987,239.7115,267.7447,92.327,1.294e-05,6.1e-07,0.0,0 STARLINK-5629,1 55419U 23014AE  23246.40517767  .00000061  00000-0  12940-4 0  9995,2 55419  69.9987 239.7115 0003866 267.7447  92.3270 14.98332525 33070,6950.185,96.107,574.737,569.363,0.0
55419.0,STARLINK-5629,PAYLOAD,2023-09-04 01:44:49,14.98312713,0.0004358,69.9987,238.0284,272.7233,87.3427,-0.00019864,-2.462e-05,0.0,0 STARLINK-5629,1 55419U 23014AE  23247.07279690 -.00002462  00000-0 -19864-3 0  9999,2 55419  69.9987 238.0284 0004358 272.7233  87.3427 14.98312713 33171,6950.246,96.108,575.14,569.082,0.0
55419.0,STARLINK-5629,PAYLOAD,2023-09-04 11:21:38,14.98312022,0.0003841,69.999,237.0184,267.4759,92.5961,-0.00019784,-2.452e-05,0.0,0 STARLINK-5629,1 55419U 23014AE  23247.47336129 -.00002452  00000-0 -19784-3 0  9994,2 55419  69.9990 237.0184 0003841 267.4759  92.5961 14.98312022 34178,6950.248,96.108,574.783,569.444,0.0
55419.0,STARLINK-5629,PAYLOAD,2023-09-04 16:10:02,14.98317867,0.0003907,69.9989,236.5134,267.6982,92.373,-0.00010257,-1.316e-05,0.0,0 STARLINK-5629,1 55419U 23014AE  23247.67363662 -.00001316  00000-0 -10257-3 0  9992,2 55419  69.9989 236.5134 0003907 267.6982  92.3730 14.98317867 33261,6950.23,96.108,574.811,569.38,0.0
55419.0,STARLINK-5629,PAYLOAD,2023-09-05 16:12:03,14.98325759,0.0003957,69.9988,233.9884,267.1315,92.9391,-3.246e-05,-4.8e-06,0.0,0 STARLINK-5629,1 55419U 23014AE  23248.67503558 -.00000480  00000-0 -32460-4 0  9995,2 55419  69.9988 233.9884 0003957 267.1315  92.9391 14.98325759 33418,6950.206,96.107,574.821,569.321,0.0
55419.0,STARLINK-5629,PAYLOAD,2023-09-05 22:36:35,14.9831747,0.0004048,69.9987,233.315,267.1436,92.9259,0.0001846,2.11e-05,0.0,0 STARLINK-5629,1 55419U 23014AE  23248.94207575  .00002110  00000-0  18460-3 0  9998,2 55419  69.9987 233.3150 0004048 267.1436  92.9259 14.98317470 34395,6950.232,96.108,574.91,569.283,0.0
